[{"OBJECT_NAME":"EZIE-A","OBJECT_ID":"2025-052AP","EPOCH":"2026-03-09T23:28:40.313568","MEAN_MOTION":14.96303626,"ECCENTRICITY":0.00037417,"INCLINATION":97.7004,"RA_OF_ASC_NODE":322.7329,"ARG_OF_PERICENTER":145.0909,"MEAN_ANOMALY":215.0559,"EPHEMERIS_TYPE":0,"CLASSIFICATION_TYPE":"U","NORAD_CAT_ID":63247,"ELEMENT_SET_NO":999,"REV_AT_EPOCH":5382,"BSTAR":0.00071342701,"MEAN_MOTION_DOT":8.013e-5,"MEAN_MOTION_DDOT":0},{"OBJECT_NAME":"STARLINK-36093","OBJECT_ID":"2025-293N","EPOCH":"2026-03-09T18:58:54.198912","MEAN_MOTION":14.98318168,"ECCENTRICITY":0.0002859,"INCLINATION":70.0017,"RA_OF_ASC_NODE":94.1738,"ARG_OF_PERICENTER":269.9344,"MEAN_ANOMALY":90.1487,"EPHEMERIS_TYPE":0,"CLASSIFICATION_TYPE":"U","NORAD_CAT_ID":67015,"ELEMENT_SET_NO":999,"REV_AT_EPOCH":1490,"BSTAR":-0.00042485433,"MEAN_MOTION_DOT":-5.157e-5,"MEAN_MOTION_DDOT":0}]
